[{"OBJECT_NAME":"HULIANWANG DIGUI-145","OBJECT_ID":"2026-007J","EPOCH":"2026-03-02T23:10:34.046112","MEAN_MOTION":13.45561892,"ECCENTRICITY":8.18e-5,"INCLINATION":50.0083,"RA_OF_ASC_NODE":107.1034,"ARG_OF_PERICENTER":345.7636,"MEAN_ANOMALY":14.322,"EPHEMERIS_TYPE":0,"CLASSIFICATION_TYPE":"U","NORAD_CAT_ID":67443,"ELEMENT_SET_NO":999,"REV_AT_EPOCH":665,"BSTAR":0.00017081,"MEAN_MOTION_DOT":-2.8e-7,"MEAN_MOTION_DDOT":0}]
